GOES 19
1 60133U 24119A   26185.49248830 -.00000236  00000+0  00000+0 0  9990
2 60133   0.0019 231.4182 0000571 297.0200 216.1632  1.00270348  7136
